[{"OBJECT_NAME":"STARLINK-34561","OBJECT_ID":"2025-167D","EPOCH":"2026-03-06T04:54:39.853152","MEAN_MOTION":15.3021335,"ECCENTRICITY":0.00012305,"INCLINATION":53.16,"RA_OF_ASC_NODE":40.2382,"ARG_OF_PERICENTER":97.2422,"MEAN_ANOMALY":262.8718,"EPHEMERIS_TYPE":0,"CLASSIFICATION_TYPE":"U","NORAD_CAT_ID":65081,"ELEMENT_SET_NO":999,"REV_AT_EPOCH":3423,"BSTAR":0.0010698308,"MEAN_MOTION_DOT":0.00031473,"MEAN_MOTION_DDOT":0},{"OBJECT_NAME":"STARLINK-34626","OBJECT_ID":"2025-167E","EPOCH":"2026-03-06T05:27:21.153888","MEAN_MOTION":15.30196004,"ECCENTRICITY":0.00010181,"INCLINATION":53.1598,"RA_OF_ASC_NODE":42.5457,"ARG_OF_PERICENTER":90.6035,"MEAN_ANOMALY":269.5083,"EPHEMERIS_TYPE":0,"CLASSIFICATION_TYPE":"U","NORAD_CAT_ID":65082,"ELEMENT_SET_NO":999,"REV_AT_EPOCH":3295,"BSTAR":0.0015614854,"MEAN_MOTION_DOT":0.00046169,"MEAN_MOTION_DDOT":0},{"OBJECT_NAME":"STARLINK-34247","OBJECT_ID":"2025-167F","EPOCH":"2026-03-06T06:48:28.411488","MEAN_MOTION":15.30204863,"ECCENTRICITY":0.00012019,"INCLINATION":53.159,"RA_OF_ASC_NODE":40.0226,"ARG_OF_PERICENTER":87.8921,"MEAN_ANOMALY":272.2218,"EPHEMERIS_TYPE":0,"CLASSIFICATION_TYPE":"U","NORAD_CAT_ID":65083,"ELEMENT_SET_NO":999,"REV_AT_EPOCH":3299,"BSTAR":0.00094256277,"MEAN_MOTION_DOT":0.00027665,"MEAN_MOTION_DDOT":0},{"OBJECT_NAME":"STARLINK-34601","OBJECT_ID":"2025-167G","EPOCH":"2026-03-06T04:51:01.212768","MEAN_MOTION":15.30212901,"ECCENTRICITY":0.00012884,"INCLINATION":53.1607,"RA_OF_ASC_NODE":43.0163,"ARG_OF_PERICENTER":104.8433,"MEAN_ANOMALY":255.2711,"EPHEMERIS_TYPE":0,"CLASSIFICATION_TYPE":"U","NORAD_CAT_ID":65084,"ELEMENT_SET_NO":999,"REV_AT_EPOCH":3294,"BSTAR":0.0012579642,"MEAN_MOTION_DOT":0.00037099,"MEAN_MOTION_DDOT":0},{"OBJECT_NAME":"STARLINK-34792","OBJECT_ID":"2025-167H","EPOCH":"2026-03-06T03:48:52.843680","MEAN_MOTION":15.30193899,"ECCENTRICITY":0.00011176,"INCLINATION":53.1595,"RA_OF_ASC_NODE":43.4581,"ARG_OF_PERICENTER":81.3745,"MEAN_ANOMALY":278.7382,"EPHEMERIS_TYPE":0,"CLASSIFICATION_TYPE":"U","NORAD_CAT_ID":65085,"ELEMENT_SET_NO":999,"REV_AT_EPOCH":3293,"BSTAR":0.0012640559,"MEAN_MOTION_DOT":0.00037259,"MEAN_MOTION_DDOT":0},{"OBJECT_NAME":"STARLINK-34822","OBJECT_ID":"2025-167J","EPOCH":"2026-03-06T05:18:24.558048","MEAN_MOTION":15.302004,"ECCENTRICITY":0.00016229,"INCLINATION":53.16,"RA_OF_ASC_NODE":43.1352,"ARG_OF_PERICENTER":108.1292,"MEAN_ANOMALY":251.9886,"EPHEMERIS_TYPE":0,"CLASSIFICATION_TYPE":"U","NORAD_CAT_ID":65086,"ELEMENT_SET_NO":999,"REV_AT_EPOCH":3294,"BSTAR":0.0010626894,"MEAN_MOTION_DOT":0.00031248,"MEAN_MOTION_DDOT":0},{"OBJECT_NAME":"STARLINK-34686","OBJECT_ID":"2025-167K","EPOCH":"2026-03-06T05:13:48.849600","MEAN_MOTION":15.30207753,"ECCENTRICITY":0.00011543,"INCLINATION":53.16,"RA_OF_ASC_NODE":43.1153,"ARG_OF_PERICENTER":84.1484,"MEAN_ANOMALY":275.9648,"EPHEMERIS_TYPE":0,"CLASSIFICATION_TYPE":"U","NORAD_CAT_ID":65087,"ELEMENT_SET_NO":999,"REV_AT_EPOCH":3294,"BSTAR":0.0011226496,"MEAN_MOTION_DOT":0.00033046,"MEAN_MOTION_DDOT":0},{"OBJECT_NAME":"STARLINK-34594","OBJECT_ID":"2025-167L","EPOCH":"2026-03-06T05:09:15.775488","MEAN_MOTION":15.30194963,"ECCENTRICITY":0.00016395,"INCLINATION":53.1604,"RA_OF_ASC_NODE":43.0948,"ARG_OF_PERICENTER":85.2072,"MEAN_ANOMALY":274.9115,"EPHEMERIS_TYPE":0,"CLASSIFICATION_TYPE":"U","NORAD_CAT_ID":65088,"ELEMENT_SET_NO":999,"REV_AT_EPOCH":3294,"BSTAR":0.00097683604,"MEAN_MOTION_DOT":0.00028679,"MEAN_MOTION_DDOT":0},{"OBJECT_NAME":"STARLINK-34665","OBJECT_ID":"2025-167M","EPOCH":"2026-03-06T03:30:38.592864","MEAN_MOTION":15.30219412,"ECCENTRICITY":0.00010334,"INCLINATION":53.1602,"RA_OF_ASC_NODE":43.3773,"ARG_OF_PERICENTER":105.9391,"MEAN_ANOMALY":254.1724,"EPHEMERIS_TYPE":0,"CLASSIFICATION_TYPE":"U","NORAD_CAT_ID":65089,"ELEMENT_SET_NO":999,"REV_AT_EPOCH":3293,"BSTAR":0.0012017034,"MEAN_MOTION_DOT":0.00035423,"MEAN_MOTION_DDOT":0},{"OBJECT_NAME":"STARLINK-34673","OBJECT_ID":"2025-167N","EPOCH":"2026-03-06T05:00:08.237088","MEAN_MOTION":15.30202741,"ECCENTRICITY":0.00011614,"INCLINATION":53.1595,"RA_OF_ASC_NODE":43.0554,"ARG_OF_PERICENTER":77.4536,"MEAN_ANOMALY":282.6594,"EPHEMERIS_TYPE":0,"CLASSIFICATION_TYPE":"U","NORAD_CAT_ID":65090,"ELEMENT_SET_NO":999,"REV_AT_EPOCH":3294,"BSTAR":0.00072111774,"MEAN_MOTION_DOT":0.00021061,"MEAN_MOTION_DDOT":0},{"OBJECT_NAME":"STARLINK-34648","OBJECT_ID":"2025-167P","EPOCH":"2026-03-06T04:57:05.821632","MEAN_MOTION":15.30212349,"ECCENTRICITY":0.00010444,"INCLINATION":53.1601,"RA_OF_ASC_NODE":43.0422,"ARG_OF_PERICENTER":83.567,"MEAN_ANOMALY":276.545,"EPHEMERIS_TYPE":0,"CLASSIFICATION_TYPE":"U","NORAD_CAT_ID":65091,"ELEMENT_SET_NO":999,"REV_AT_EPOCH":3294,"BSTAR":0.0011060056,"MEAN_MOTION_DOT":0.00032554,"MEAN_MOTION_DDOT":0},{"OBJECT_NAME":"STARLINK-34640","OBJECT_ID":"2025-167Q","EPOCH":"2026-03-06T04:54:03.719808","MEAN_MOTION":15.30212859,"ECCENTRICITY":0.00011361,"INCLINATION":53.1601,"RA_OF_ASC_NODE":43.028,"ARG_OF_PERICENTER":82.9652,"MEAN_ANOMALY":277.1477,"EPHEMERIS_TYPE":0,"CLASSIFICATION_TYPE":"U","NORAD_CAT_ID":65092,"ELEMENT_SET_NO":999,"REV_AT_EPOCH":3294,"BSTAR":0.00090833284,"MEAN_MOTION_DOT":0.0002665,"MEAN_MOTION_DDOT":0},{"OBJECT_NAME":"STARLINK-34266","OBJECT_ID":"2025-167R","EPOCH":"2026-03-06T04:49:30.032256","MEAN_MOTION":15.30198504,"ECCENTRICITY":0.00011698,"INCLINATION":53.1614,"RA_OF_ASC_NODE":43.0055,"ARG_OF_PERICENTER":102.2601,"MEAN_ANOMALY":257.8531,"EPHEMERIS_TYPE":0,"CLASSIFICATION_TYPE":"U","NORAD_CAT_ID":65093,"ELEMENT_SET_NO":999,"REV_AT_EPOCH":3294,"BSTAR":0.00067492963,"MEAN_MOTION_DOT":0.00019682,"MEAN_MOTION_DDOT":0},{"OBJECT_NAME":"STARLINK-34769","OBJECT_ID":"2025-167S","EPOCH":"2026-03-06T04:44:56.751648","MEAN_MOTION":15.30212559,"ECCENTRICITY":0.00015629,"INCLINATION":53.162,"RA_OF_ASC_NODE":42.9883,"ARG_OF_PERICENTER":102.5185,"MEAN_ANOMALY":257.5991,"EPHEMERIS_TYPE":0,"CLASSIFICATION_TYPE":"U","NORAD_CAT_ID":65094,"ELEMENT_SET_NO":999,"REV_AT_EPOCH":3294,"BSTAR":0.00087256959,"MEAN_MOTION_DOT":0.00025583,"MEAN_MOTION_DDOT":0},{"OBJECT_NAME":"STARLINK-34768","OBJECT_ID":"2025-167T","EPOCH":"2026-03-06T04:40:23.075328","MEAN_MOTION":15.30220113,"ECCENTRICITY":0.00013198,"INCLINATION":53.1624,"RA_OF_ASC_NODE":42.969,"ARG_OF_PERICENTER":88.757,"MEAN_ANOMALY":271.3582,"EPHEMERIS_TYPE":0,"CLASSIFICATION_TYPE":"U","NORAD_CAT_ID":65095,"ELEMENT_SET_NO":999,"REV_AT_EPOCH":3294,"BSTAR":0.0013434753,"MEAN_MOTION_DOT":0.00039668,"MEAN_MOTION_DDOT":0},{"OBJECT_NAME":"STARLINK-34759","OBJECT_ID":"2025-167U","EPOCH":"2026-03-06T06:09:52.865568","MEAN_MOTION":15.30214864,"ECCENTRICITY":0.00012014,"INCLINATION":53.1614,"RA_OF_ASC_NODE":42.646,"ARG_OF_PERICENTER":93.5419,"MEAN_ANOMALY":266.5719,"EPHEMERIS_TYPE":0,"CLASSIFICATION_TYPE":"U","NORAD_CAT_ID":65096,"ELEMENT_SET_NO":999,"REV_AT_EPOCH":3295,"BSTAR":0.0012671173,"MEAN_MOTION_DOT":0.00037375,"MEAN_MOTION_DDOT":0},{"OBJECT_NAME":"STARLINK-34741","OBJECT_ID":"2025-167V","EPOCH":"2026-03-06T06:05:19.199616","MEAN_MOTION":15.30212993,"ECCENTRICITY":0.00010476,"INCLINATION":53.1632,"RA_OF_ASC_NODE":42.6269,"ARG_OF_PERICENTER":116.7086,"MEAN_ANOMALY":243.4023,"EPHEMERIS_TYPE":0,"CLASSIFICATION_TYPE":"U","NORAD_CAT_ID":65097,"ELEMENT_SET_NO":999,"REV_AT_EPOCH":3295,"BSTAR":0.00099598398,"MEAN_MOTION_DOT":0.00029267,"MEAN_MOTION_DDOT":0},{"OBJECT_NAME":"STARLINK-34764","OBJECT_ID":"2025-167W","EPOCH":"2026-03-06T06:00:45.628704","MEAN_MOTION":15.30210502,"ECCENTRICITY":0.00011991,"INCLINATION":53.1613,"RA_OF_ASC_NODE":42.6053,"ARG_OF_PERICENTER":101.7496,"MEAN_ANOMALY":258.364,"EPHEMERIS_TYPE":0,"CLASSIFICATION_TYPE":"U","NORAD_CAT_ID":65098,"ELEMENT_SET_NO":999,"REV_AT_EPOCH":3295,"BSTAR":0.00092548636,"MEAN_MOTION_DOT":0.0002716,"MEAN_MOTION_DDOT":0},{"OBJECT_NAME":"STARLINK-34815","OBJECT_ID":"2025-167X","EPOCH":"2026-03-06T06:02:16.801440","MEAN_MOTION":15.30212092,"ECCENTRICITY":0.00011923,"INCLINATION":53.1608,"RA_OF_ASC_NODE":42.6141,"ARG_OF_PERICENTER":100.6239,"MEAN_ANOMALY":259.4896,"EPHEMERIS_TYPE":0,"CLASSIFICATION_TYPE":"U","NORAD_CAT_ID":65099,"ELEMENT_SET_NO":999,"REV_AT_EPOCH":3295,"BSTAR":0.0012118727,"MEAN_MOTION_DOT":0.00035719,"MEAN_MOTION_DDOT":0},{"OBJECT_NAME":"STARLINK-34814","OBJECT_ID":"2025-167Y","EPOCH":"2026-03-06T05:56:12.129504","MEAN_MOTION":15.30215569,"ECCENTRICITY":0.00012868,"INCLINATION":53.1606,"RA_OF_ASC_NODE":42.5862,"ARG_OF_PERICENTER":106.8539,"MEAN_ANOMALY":253.2603,"EPHEMERIS_TYPE":0,"CLASSIFICATION_TYPE":"U","NORAD_CAT_ID":65100,"ELEMENT_SET_NO":999,"REV_AT_EPOCH":3295,"BSTAR":0.0012238229,"MEAN_MOTION_DOT":0.00036081,"MEAN_MOTION_DDOT":0},{"OBJECT_NAME":"STARLINK-34285","OBJECT_ID":"2025-167Z","EPOCH":"2026-03-06T07:25:41.813472","MEAN_MOTION":15.30201245,"ECCENTRICITY":0.00013613,"INCLINATION":53.1608,"RA_OF_ASC_NODE":42.263,"ARG_OF_PERICENTER":94.7143,"MEAN_ANOMALY":265.4013,"EPHEMERIS_TYPE":0,"CLASSIFICATION_TYPE":"U","NORAD_CAT_ID":65101,"ELEMENT_SET_NO":999,"REV_AT_EPOCH":3296,"BSTAR":0.00077070883,"MEAN_MOTION_DOT":0.00022537,"MEAN_MOTION_DDOT":0},{"OBJECT_NAME":"STARLINK-34857","OBJECT_ID":"2025-167AA","EPOCH":"2026-03-06T05:41:00.230208","MEAN_MOTION":15.3020568,"ECCENTRICITY":0.00012134,"INCLINATION":53.1596,"RA_OF_ASC_NODE":42.516,"ARG_OF_PERICENTER":82.3693,"MEAN_ANOMALY":277.7445,"EPHEMERIS_TYPE":0,"CLASSIFICATION_TYPE":"U","NORAD_CAT_ID":65102,"ELEMENT_SET_NO":999,"REV_AT_EPOCH":3295,"BSTAR":0.0011196183,"MEAN_MOTION_DOT":0.00032954,"MEAN_MOTION_DDOT":0},{"OBJECT_NAME":"STARLINK-34887","OBJECT_ID":"2025-167AB","EPOCH":"2026-03-06T04:09:59.160096","MEAN_MOTION":15.30215454,"ECCENTRICITY":0.00011335,"INCLINATION":53.1598,"RA_OF_ASC_NODE":42.8331,"ARG_OF_PERICENTER":136.906,"MEAN_ANOMALY":223.203,"EPHEMERIS_TYPE":0,"CLASSIFICATION_TYPE":"U","NORAD_CAT_ID":65103,"ELEMENT_SET_NO":999,"REV_AT_EPOCH":3294,"BSTAR":0.00063853215,"MEAN_MOTION_DOT":0.00018609,"MEAN_MOTION_DDOT":0}]
